start=new Date('2022-06-09T00:00:00.000Z').valueOf();
sats=[{"PERIAPSIS":"546.062","MEAN_ANOMALY":"302.6115","ECCENTRICITY":"0.00016510","MEAN_MOTION":"15.06402693","TIME_SYSTEM":"UTC","NORAD_CAT_ID":"48463","TLE_LINE2":"2 48463  53.0544 222.8237 0001651  57.5033 302.6115 15.06402693 59974","CENTER_NAME":"EARTH","SITE":"AFETR","GP_ID":"205635083","EPHEMERIS_TYPE":"0","LAUNCH_DATE":"2021-05-09","OBJECT_TYPE":"PAYLOAD","INCLINATION":"53.0544","REV_AT_EPOCH":"5997","REF_FRAME":"TEME","DECAY_DATE":null,"OBJECT_ID":"2021-040AM","COUNTRY_CODE":"US","ARG_OF_PERICENTER":"57.5033","PERIOD":"95.592","FILE":"3485745","CLASSIFICATION_TYPE":"U","TLE_LINE1":"1 48463U 21040AM  22159.46113370  .00000708  00000-0  66403-4 0  9994","ELEMENT_SET_NO":"999","RCS_SIZE":"LARGE","SEMIMAJOR_AXIS":"6925.340","EPOCH":"2022-06-08T11:04:01.951680","RA_OF_ASC_NODE":"222.8237","MEAN_MOTION_DOT":"0.00000708","MEAN_MOTION_DDOT":"0.0000000000000","MEAN_ELEMENT_THEORY":"SGP4","APOAPSIS":"548.349","BSTAR":"0.00006640300000","OBJECT_NAME":"STARLINK-2689"},{"MEAN_ANOMALY":"297.8237","PERIAPSIS":"546.179","ECCENTRICITY":"0.00015370","MEAN_MOTION":"15.06390188","TIME_SYSTEM":"UTC","NORAD_CAT_ID":"48464","TLE_LINE2":"2 48464  53.0537 222.9166 0001537  62.2908 297.8237 15.06390188 59960","CENTER_NAME":"EARTH","SITE":"AFETR","GP_ID":"205634831","LAUNCH_DATE":"2021-05-09","EPHEMERIS_TYPE":"0","OBJECT_TYPE":"PAYLOAD","INCLINATION":"53.0537","REV_AT_EPOCH":"5996","DECAY_DATE":null,"REF_FRAME":"TEME","OBJECT_ID":"2021-040AN","COUNTRY_CODE":"US","ARG_OF_PERICENTER":"62.2908","PERIOD":"95.593","FILE":"3485745","CLASSIFICATION_TYPE":"U","TLE_LINE1":"1 48464U 21040AN  22159.43997573 -.00000116  00000-0  11087-4 0  9999","ELEMENT_SET_NO":"999","RCS_SIZE":"MEDIUM","SEMIMAJOR_AXIS":"6925.379","RA_OF_ASC_NODE":"222.9166","EPOCH":"2022-06-08T10:33:33.903072","MEAN_MOTION_DOT":"-0.00000116","MEAN_MOTION_DDOT":"0.0000000000000","MEAN_ELEMENT_THEORY":"SGP4","APOAPSIS":"548.308","BSTAR":"0.00001108700000","OBJECT_NAME":"STARLINK-2686"},{"OBJECT_TYPE":"PAYLOAD","INCLINATION":"53.0531","EPHEMERIS_TYPE":"0","LAUNCH_DATE":"2021-05-09","SITE":"AFETR","GP_ID":"205633582","TLE_LINE2":"2 48465  53.0531 222.8663 0001597  68.4861 291.6298 15.06404177 59972","CENTER_NAME":"EARTH","NORAD_CAT_ID":"48465","TIME_SYSTEM":"UTC","ECCENTRICITY":"0.00015970","MEAN_MOTION":"15.06404177","PERIAPSIS":"546.095","MEAN_ANOMALY":"291.6298","BSTAR":"0.00001373600000","OBJECT_NAME":"STARLINK-2681","MEAN_ELEMENT_THEORY":"SGP4","APOAPSIS":"548.307","ELEMENT_SET_NO":"999","RCS_SIZE":"LARGE","MEAN_MOTION_DOT":"-0.00000077","SEMIMAJOR_AXIS":"6925.336","RA_OF_ASC_NODE":"222.8663","EPOCH":"2022-06-08T10:49:27.997536","MEAN_MOTION_DDOT":"0.0000000000000","TLE_LINE1":"1 48465U 21040AP  22159.45101849 -.00000077  00000-0  13736-4 0  9994","CLASSIFICATION_TYPE":"U","COUNTRY_CODE":"US","PERIOD":"95.592","ARG_OF_PERICENTER":"68.4861","FILE":"3485745","OBJECT_ID":"2021-040AP","REV_AT_EPOCH":"5997","DECAY_DATE":null,"REF_FRAME":"TEME"},{"MEAN_MOTION":"15.06408240","ECCENTRICITY":"0.00016320","PERIAPSIS":"546.058","MEAN_ANOMALY":"310.9320","NORAD_CAT_ID":"48466","TIME_SYSTEM":"UTC","GP_ID":"205634332","SITE":"AFETR","CENTER_NAME":"EARTH","TLE_LINE2":"2 48466  53.0525 222.6369 0001632  49.1810 310.9320 15.06408240 59984","INCLINATION":"53.0525","OBJECT_TYPE":"PAYLOAD","LAUNCH_DATE":"2021-05-09","EPHEMERIS_TYPE":"0","OBJECT_ID":"2021-040AQ","REF_FRAME":"TEME","DECAY_DATE":null,"REV_AT_EPOCH":"5998","CLASSIFICATION_TYPE":"U","PERIOD":"95.592","ARG_OF_PERICENTER":"49.1810","FILE":"3485745","COUNTRY_CODE":"US","MEAN_MOTION_DDOT":"0.0000000000000","ELEMENT_SET_NO":"999","RCS_SIZE":"LARGE","SEMIMAJOR_AXIS":"6925.323","RA_OF_ASC_NODE":"222.6369","MEAN_MOTION_DOT":"0.00001687","EPOCH":"2022-06-08T12:03:45.613728","TLE_LINE1":"1 48466U 21040AQ  22159.50261127  .00001687  00000-0  13209-3 0  9998","OBJECT_NAME":"STARLINK-2687","BSTAR":"0.00013209000000","MEAN_ELEMENT_THEORY":"SGP4","APOAPSIS":"548.319"},{"MEAN_ANOMALY":"302.5029","PERIAPSIS":"546.209","MEAN_MOTION":"15.06397317","ECCENTRICITY":"0.00014630","TIME_SYSTEM":"UTC","NORAD_CAT_ID":"48467","CENTER_NAME":"EARTH","TLE_LINE2":"2 48467  53.0540 222.8161 0001463  57.6102 302.5029 15.06397317 59978","GP_ID":"205634583","SITE":"AFETR","EPHEMERIS_TYPE":"0","LAUNCH_DATE":"2021-05-09","INCLINATION":"53.0540","OBJECT_TYPE":"PAYLOAD","REF_FRAME":"TEME","DECAY_DATE":null,"REV_AT_EPOCH":"5997","OBJECT_ID":"2021-040AR","FILE":"3485745","PERIOD":"95.592","ARG_OF_PERICENTER":"57.6102","COUNTRY_CODE":"US","CLASSIFICATION_TYPE":"U","TLE_LINE1":"1 48467U 21040AR  22159.46207513  .00000472  00000-0  50560-4 0  9996","MEAN_MOTION_DDOT":"0.0000000000000","RCS_SIZE":"LARGE","SEMIMAJOR_AXIS":"6925.357","RA_OF_ASC_NODE":"222.8161","EPOCH":"2022-06-08T11:05:23.291232","MEAN_MOTION_DOT":"0.00000472","ELEMENT_SET_NO":"999","APOAPSIS":"548.235","MEAN_ELEMENT_THEORY":"SGP4","OBJECT_NAME":"STARLINK-2659","BSTAR":"0.00005056000000"},{"MEAN_MOTION":"15.06396399","ECCENTRICITY":"0.00016210","MEAN_ANOMALY":"293.8777","PERIAPSIS":"546.102","NORAD_CAT_ID":"48468","TIME_SYSTEM":"UTC","GP_ID":"205643259","SITE":"AFETR","CENTER_NAME":"EARTH","TLE_LINE2":"2 48468  53.0553 221.7081 0001621  66.2382 293.8777 15.06396399 61282","INCLINATION":"53.0553","OBJECT_TYPE":"PAYLOAD","LAUNCH_DATE":"2021-05-09","EPHEMERIS_TYPE":"0","OBJECT_ID":"2021-040AS","REF_FRAME":"TEME","DECAY_DATE":null,"REV_AT_EPOCH":"6128","CLASSIFICATION_TYPE":"U","ARG_OF_PERICENTER":"66.2382","PERIOD":"95.592","FILE":"3486139","COUNTRY_CODE":"US","MEAN_MOTION_DDOT":"0.0000000000000","ELEMENT_SET_NO":"999","RCS_SIZE":"LARGE","SEMIMAJOR_AXIS":"6925.360","EPOCH":"2022-06-08T17:01:01.002432","RA_OF_ASC_NODE":"221.7081","MEAN_MOTION_DOT":"-0.00000745","TLE_LINE1":"1 48468U 21040AS  22159.70903938 -.00000745  00000-0 -31094-4 0  9994","OBJECT_NAME":"STARLINK-2685","BSTAR":"-0.00003109400000","MEAN_ELEMENT_THEORY":"SGP4","APOAPSIS":"548.347"},{"SITE":"AFETR","GP_ID":"205634083","TLE_LINE2":"2 48469  53.0529 222.2366 0001423  88.9089 271.2063 15.06404927 59993","CENTER_NAME":"EARTH","OBJECT_TYPE":"PAYLOAD","INCLINATION":"53.0529","EPHEMERIS_TYPE":"0","LAUNCH_DATE":"2021-05-09","ECCENTRICITY":"0.00014230","MEAN_MOTION":"15.06404927","MEAN_ANOMALY":"271.2063","PERIAPSIS":"546.213","NORAD_CAT_ID":"48469","TIME_SYSTEM":"UTC","SEMIMAJOR_AXIS":"6925.333","RCS_SIZE":"LARGE","MEAN_MOTION_DOT":"0.00000718","EPOCH":"2022-06-08T14:11:09.516768","RA_OF_ASC_NODE":"222.2366","ELEMENT_SET_NO":"999","MEAN_MOTION_DDOT":"0.0000000000000","TLE_LINE1":"1 48469U 21040AT  22159.59108237  .00000718  00000-0  67112-4 0  9999","BSTAR":"0.00006711200000","OBJECT_NAME":"STARLINK-2661","APOAPSIS":"548.184","MEAN_ELEMENT_THEORY":"SGP4","OBJECT_ID":"2021-040AT","REV_AT_EPOCH":"5999","REF_FRAME":"TEME","DECAY_DATE":null,"CLASSIFICATION_TYPE":"U","COUNTRY_CODE":"US","FILE":"3485745","ARG_OF_PERICENTER":"88.9089","PERIOD":"95.592"},{"ECCENTRICITY":"0.00016850","MEAN_MOTION":"15.06406311","PERIAPSIS":"546.027","MEAN_ANOMALY":"310.5559","NORAD_CAT_ID":"48470","TIME_SYSTEM":"UTC","SITE":"AFETR","GP_ID":"205633833","TLE_LINE2":"2 48470  53.0544 222.2565 0001685  49.5576 310.5559 15.06406311 59982","CENTER_NAME":"EARTH","OBJECT_TYPE":"PAYLOAD","INCLINATION":"53.0544","EPHEMERIS_TYPE":"0","LAUNCH_DATE":"2021-05-09","OBJECT_ID":"2021-040AU","REV_AT_EPOCH":"5998","REF_FRAME":"TEME","DECAY_DATE":null,"CLASSIFICATION_TYPE":"U","COUNTRY_CODE":"US","ARG_OF_PERICENTER":"49.5576","PERIOD":"95.592","FILE":"3485745","ELEMENT_SET_NO":"999","RCS_SIZE":"LARGE","MEAN_MOTION_DOT":"0.00000116","SEMIMAJOR_AXIS":"6925.329","RA_OF_ASC_NODE":"222.2565","EPOCH":"2022-06-08T14:05:50.857152","MEAN_MOTION_DDOT":"0.0000000000000","TLE_LINE1":"1 48470U 21040AU  22159.58739418  .00000116  00000-0  26716-4 0  9998","BSTAR":"0.00002671600000","OBJECT_NAME":"STARLINK-2675","MEAN_ELEMENT_THEORY":"SGP4","APOAPSIS":"548.361"},{"MEAN_MOTION":"15.06396059","ECCENTRICITY":"0.00018220","PERIAPSIS":"545.964","MEAN_ANOMALY":"312.5992","NORAD_CAT_ID":"48471","TIME_SYSTEM":"UTC","GP_ID":"205635084","SITE":"AFETR","CENTER_NAME":"EARTH","TLE_LINE2":"2 48471  53.0532 222.8746 0001822  47.5151 312.5992 15.06396059 59965","INCLINATION":"53.0532","OBJECT_TYPE":"PAYLOAD","EPHEMERIS_TYPE":"0","LAUNCH_DATE":"2021-05-09","OBJECT_ID":"2021-040AV","REF_FRAME":"TEME","DECAY_DATE":null,"REV_AT_EPOCH":"5996","CLASSIFICATION_TYPE":"U","FILE":"3485745","ARG_OF_PERICENTER":"47.5151","PERIOD":"95.592","COUNTRY_CODE":"US","MEAN_MOTION_DDOT":"0.0000000000000","EPOCH":"2022-06-08T10:44:09.848544","RCS_SIZE":"LARGE","SEMIMAJOR_AXIS":"6925.361","RA_OF_ASC_NODE":"222.8746","MEAN_MOTION_DOT":"0.00000693","ELEMENT_SET_NO":"999","TLE_LINE1":"1 48471U 21040AV  22159.44733621  .00000693  00000-0  65436-4 0  9996","OBJECT_NAME":"STARLINK-2684","BSTAR":"0.00006543600000","APOAPSIS":"548.487","MEAN_ELEMENT_THEORY":"SGP4"},{"CLASSIFICATION_TYPE":"U","COUNTRY_CODE":"US","PERIOD":"95.593","ARG_OF_PERICENTER":"55.8596","FILE":"3485745","OBJECT_ID":"2021-040AW","REV_AT_EPOCH":"5995","REF_FRAME":"TEME","DECAY_DATE":null,"BSTAR":"-0.00002447600000","OBJECT_NAME":"STARLINK-2722","MEAN_ELEMENT_THEORY":"SGP4","APOAPSIS":"548.620","ELEMENT_SET_NO":"999","RCS_SIZE":"LARGE","SEMIMAJOR_AXIS":"6925.371","RA_OF_ASC_NODE":"222.9623","EPOCH":"2022-06-08T10:17:38.157504","MEAN_MOTION_DOT":"-0.00000646","MEAN_MOTION_DDOT":"0.0000000000000","TLE_LINE1":"1 48472U 21040AW  22159.42891386 -.00000646  00000-0 -24476-4 0  9997","NORAD_CAT_ID":"48472","TIME_SYSTEM":"UTC","ECCENTRICITY":"0.00019980","MEAN_MOTION":"15.06392655","MEAN_ANOMALY":"304.2583","PERIAPSIS":"545.852","OBJECT_TYPE":"PAYLOAD","INCLINATION":"53.0558","EPHEMERIS_TYPE":"0","LAUNCH_DATE":"2021-05-09","SITE":"AFETR","GP_ID":"205634832","TLE_LINE2":"2 48472  53.0558 222.9623 0001998  55.8596 304.2583 15.06392655 59959","CENTER_NAME":"EARTH"}];
